{"type": "FeatureCollection", "features": [ {"type": "Feature", "properties": {"norad_id": 66970, "name": "STARLINK-35703", "group": "last-30-days", "lat": 23.1930214460886, "lon": 105.93514196985261, "alt_km": 394.49168488015584, "timestamp": "2025-12-27T07:26:23.947898+00:00", "meta": {"OBJECT_NAME": "STARLINK-35703", "OBJECT_ID": "2025-288M", "EPOCH": "2025-12-26T22:00:01.999584", "MEAN_MOTION": 15.58334791, "ECCENTRICITY": 0.00016627, "INCLINATION": 43.0004, "RA_OF_ASC_NODE": 80.8866, "ARG_OF_PERICENTER": 274.7449, "MEAN_ANOMALY": 72.7356, "EPHEMERIS_TYPE": 0, "CLASSIFICATION_TYPE": "U", "NORAD_CAT_ID": 66970, "ELEMENT_SET_NO": 999, "REV_AT_EPOCH": 410, "BSTAR": -0.030016911, "MEAN_MOTION_DOT": -0.02085981, "MEAN_MOTION_DDOT": 0}, "tle": {"line1": "1 66970U 25288M   25360.91668981 -.02085981  00000+0 -30017-1 0  9993", "line2": "2 66970  43.0004  80.8866 0001662 274.7449  72.7356 15.58334791  4100"}}, "geometry": {"type": "Point", "coordinates": [105.93514196985261, 23.1930214460886]}}, {"type": "Feature", "properties": {"norad_id": 66971, "name": "STARLINK-35678", "group": "last-30-days", "lat": 13.44450212284969, "lon": 93.46654551417672, "alt_km": 395.7100105669151, "timestamp": "2025-12-27T07:26:23.947909+00:00", "meta": {"OBJECT_NAME": "STARLINK-35678", "OBJECT_ID": "2025-288N", "EPOCH": "2025-12-26T22:00:01.999584", "MEAN_MOTION": 15.58335663, "ECCENTRICITY": 0.00016142, "INCLINATION": 43.0002, "RA_OF_ASC_NODE": 80.9267, "ARG_OF_PERICENTER": 273.4516, "MEAN_ANOMALY": 58.6924, "EPHEMERIS_TYPE": 0, "CLASSIFICATION_TYPE": "U", "NORAD_CAT_ID": 66971, "ELEMENT_SET_NO": 999, "REV_AT_EPOCH": 410, "BSTAR": -0.030053849, "MEAN_MOTION_DOT": -0.02088298, "MEAN_MOTION_DDOT": 0}, "tle": {"line1": "1 66971U 25288N   25360.91668981 -.02088298  00000+0 -30054-1 0  9999", "line2": "2 66971  43.0002  80.9267 0001614 273.4516  58.6924 15.58335663  4106"}}, "geometry": {"type": "Point", "coordinates": [93.46654551417672, 13.44450212284969]}}, {"type": "Feature", "properties": {"norad_id": 66972, "name": "STARLINK-34846", "group": "last-30-days", "lat": 14.70526803121209, "lon": 94.95450697240848, "alt_km": 395.57834479970643, "timestamp": "2025-12-27T07:26:23.947919+00:00", "meta": {"OBJECT_NAME": "STARLINK-34846", "OBJECT_ID": "2025-288P", "EPOCH": "2025-12-26T22:00:01.999584", "MEAN_MOTION": 15.58335154, "ECCENTRICITY": 0.00017329, "INCLINATION": 43.0003, "RA_OF_ASC_NODE": 80.9215, "ARG_OF_PERICENTER": 273.9776, "MEAN_ANOMALY": 60.0867, "EPHEMERIS_TYPE": 0, "CLASSIFICATION_TYPE": "U", "NORAD_CAT_ID": 66972, "ELEMENT_SET_NO": 999, "REV_AT_EPOCH": 410, "BSTAR": -0.030098193, "MEAN_MOTION_DOT": -0.02091091, "MEAN_MOTION_DDOT": 0}, "tle": {"line1": "1 66972U 25288P   25360.91668981 -.02091091  00000+0 -30098-1 0  9993", "line2": "2 66972  43.0003  80.9215 0001732 273.9776  60.0867 15.58335154  4103"}}, "geometry": {"type": "Point", "coordinates": [94.95450697240848, 14.70526803121209]}}, {"type": "Feature", "properties": {"norad_id": 66973, "name": "STARLINK-35778", "group": "last-30-days", "lat": 15.953123252090387, "lon": 96.45662423915499, "alt_km": 395.3495023892938, "timestamp": "2025-12-27T07:26:23.947929+00:00", "meta": {"OBJECT_NAME": "STARLINK-35778", "OBJECT_ID": "2025-288Q", "EPOCH": "2025-12-26T22:00:01.999584", "MEAN_MOTION": 15.58337686, "ECCENTRICITY": 0.00015716, "INCLINATION": 43.0003, "RA_OF_ASC_NODE": 80.9171, "ARG_OF_PERICENTER": 275.4951, "MEAN_ANOMALY": 60.4813, "EPHEMERIS_TYPE": 0, "CLASSIFICATION_TYPE": "U", "NORAD_CAT_ID": 66973, "ELEMENT_SET_NO": 999, "REV_AT_EPOCH": 410, "BSTAR": -0.030092827, "MEAN_MOTION_DOT": -0.02090826, "MEAN_MOTION_DDOT": 0}, "tle": {"line1": "1 66973U 25288Q   25360.91668981 -.02090826  00000+0 -30093-1 0  9994", "line2": "2 66973  43.0003  80.9171 0001571 275.4951  60.4813 15.58337686  4105"}}, "geometry": {"type": "Point", "coordinates": [96.45662423915499, 15.953123252090387]}}, {"type": "Feature", "properties": {"norad_id": 66974, "name": "STARLINK-35780", "group": "last-30-days", "lat": 17.19156948699415, "lon": 97.97849835179943, "alt_km": 395.17526761235877, "timestamp": "2025-12-27T07:26:23.947941+00:00", "meta": {"OBJECT_NAME": "STARLINK-35780", "OBJECT_ID": "2025-288R", "EPOCH": "2025-12-26T22:00:01.999584", "MEAN_MOTION": 15.58336591, "ECCENTRICITY": 0.00014667, "INCLINATION": 43.0005, "RA_OF_ASC_NODE": 80.9123, "ARG_OF_PERICENTER": 275.5035, "MEAN_ANOMALY": 62.3909, "EPHEMERIS_TYPE": 0, "CLASSIFICATION_TYPE": "U", "NORAD_CAT_ID": 66974, "ELEMENT_SET_NO": 999, "REV_AT_EPOCH": 410, "BSTAR": -0.030081028, "MEAN_MOTION_DOT": -0.02089945, "MEAN_MOTION_DDOT": 0}, "tle": {"line1": "1 66974U 25288R   25360.91668981 -.02089945  00000+0 -30081-1 0  9992", "line2": "2 66974  43.0005  80.9123 0001466 275.5035  62.3909 15.58336591  4103"}}, "geometry": {"type": "Point", "coordinates": [97.97849835179943, 17.19156948699415]}}, {"type": "Feature", "properties": {"norad_id": 66975, "name": "STARLINK-35777", "group": "last-30-days", "lat": 19.635189605535146, "lon": 101.0884940342702, "alt_km": 394.9259536573545, "timestamp": "2025-12-27T07:26:23.947953+00:00", "meta": {"OBJECT_NAME": "STARLINK-35777", "OBJECT_ID": "2025-288S", "EPOCH": "2025-12-26T22:00:01.999584", "MEAN_MOTION": 15.58333144, "ECCENTRICITY": 0.00016185, "INCLINATION": 43.0001, "RA_OF_ASC_NODE": 80.9018, "ARG_OF_PERICENTER": 274.8384, "MEAN_ANOMALY": 66.8929, "EPHEMERIS_TYPE": 0, "CLASSIFICATION_TYPE": "U", "NORAD_CAT_ID": 66975, "ELEMENT_SET_NO": 999, "REV_AT_EPOCH": 410, "BSTAR": -0.030023939, "MEAN_MOTION_DOT": -0.0208627, "MEAN_MOTION_DDOT": 0}, "tle": {"line1": "1 66975U 25288S   25360.91668981 -.02086270  00000+0 -30024-1 0  9998", "line2": "2 66975  43.0001  80.9018 0001618 274.8384  66.8929 15.58333144  4103"}}, "geometry": {"type": "Point", "coordinates": [101.0884940342702, 19.635189605535146]}}, {"type": "Feature", "properties": {"norad_id": 66976, "name": "STARLINK-35772", "group": "last-30-days", "lat": 23.883561447825755, "lon": -128.29746323742543, "alt_km": 440.88505592957245, "timestamp": "2025-12-27T07:26:23.947984+00:00", "meta": {"OBJECT_NAME": "STARLINK-35772", "OBJECT_ID": "2025-288T", "EPOCH": "2025-12-26T22:00:01.999584", "MEAN_MOTION": 15.40733521, "ECCENTRICITY": 0.00012672, "INCLINATION": 43.0005, "RA_OF_ASC_NODE": 82.3399, "ARG_OF_PERICENTER": 268.3975, "MEAN_ANOMALY": 211.0223, "EPHEMERIS_TYPE": 0, "CLASSIFICATION_TYPE": "U", "NORAD_CAT_ID": 66976, "ELEMENT_SET_NO": 999, "REV_AT_EPOCH": 410, "BSTAR": -0.0020028809, "MEAN_MOTION_DOT": -0.00083154, "MEAN_MOTION_DDOT": 0}, "tle": {"line1": "1 66976U 25288T   25360.91668981 -.00083154  00000+0 -20029-2 0  9990", "line2": "2 66976  43.0005  82.3399 0001267 268.3975 211.0223 15.40733521  4105"}}, "geometry": {"type": "Point", "coordinates": [-128.29746323742543, 23.883561447825755]}}, {"type": "Feature", "properties": {"norad_id": 66977, "name": "STARLINK-35770", "group": "last-30-days", "lat": 20.834852102171972, "lon": 102.67654573248971, "alt_km": 394.73822898092294, "timestamp": "2025-12-27T07:26:23.947998+00:00", "meta": {"OBJECT_NAME": "STARLINK-35770", "OBJECT_ID": "2025-288U", "EPOCH": "2025-12-26T22:00:01.999584", "MEAN_MOTION": 15.583344, "ECCENTRICITY": 0.00013984, "INCLINATION": 43.0004, "RA_OF_ASC_NODE": 80.8977, "ARG_OF_PERICENTER": 273.6368, "MEAN_ANOMALY": 70.011, "EPHEMERIS_TYPE": 0, "CLASSIFICATION_TYPE": "U", "NORAD_CAT_ID": 66977, "ELEMENT_SET_NO": 999, "REV_AT_EPOCH": 410, "BSTAR": -0.030048724, "MEAN_MOTION_DOT": -0.02087743, "MEAN_MOTION_DDOT": 0}, "tle": {"line1": "1 66977U 25288U   25360.91668981 -.02087743  00000+0 -30049-1 0  9993", "line2": "2 66977  43.0004  80.8977 0001398 273.6368  70.0110 15.58334400  4100"}}, "geometry": {"type": "Point", "coordinates": [102.67654573248971, 20.834852102171972]}}, {"type": "Feature", "properties": {"norad_id": 66978, "name": "STARLINK-35787", "group": "last-30-days", "lat": 24.344352883415898, "lon": 107.60540206597288, "alt_km": 394.22595333569643, "timestamp": "2025-12-27T07:26:23.948008+00:00", "meta": {"OBJECT_NAME": "STARLINK-35787", "OBJECT_ID": "2025-288V", "EPOCH": "2025-12-26T22:00:01.999584", "MEAN_MOTION": 15.58336733, "ECCENTRICITY": 0.00015159, "INCLINATION": 43.0002, "RA_OF_ASC_NODE": 80.8825, "ARG_OF_PERICENTER": 277.9162, "MEAN_ANOMALY": 71.4802, "EPHEMERIS_TYPE": 0, "CLASSIFICATION_TYPE": "U", "NORAD_CAT_ID": 66978, "ELEMENT_SET_NO": 999, "REV_AT_EPOCH": 410, "BSTAR": -0.030077352, "MEAN_MOTION_DOT": -0.02089761, "MEAN_MOTION_DDOT": 0}, "tle": {"line1": "1 66978U 25288V   25360.91668981 -.02089761  00000+0 -30077-1 0  9997", "line2": "2 66978  43.0002  80.8825 0001515 277.9162  71.4802 15.58336733  4105"}}, "geometry": {"type": "Point", "coordinates": [107.60540206597288, 24.344352883415898]}}, {"type": "Feature", "properties": {"norad_id": 66979, "name": "STARLINK-36107", "group": "last-30-days", "lat": 25.478427152878126, "lon": 109.30784376912798, "alt_km": 394.18412985793384, "timestamp": "2025-12-27T07:26:23.948018+00:00", "meta": {"OBJECT_NAME": "STARLINK-36107", "OBJECT_ID": "2025-288W", "EPOCH": "2025-12-26T22:00:01.999584", "MEAN_MOTION": 15.58331001, "ECCENTRICITY": 0.00015476, "INCLINATION": 43.0003, "RA_OF_ASC_NODE": 80.8782, "ARG_OF_PERICENTER": 273.7048, "MEAN_ANOMALY": 77.6126, "EPHEMERIS_TYPE": 0, "CLASSIFICATION_TYPE": "U", "NORAD_CAT_ID": 66979, "ELEMENT_SET_NO": 999, "REV_AT_EPOCH": 410, "BSTAR": -0.029962305, "MEAN_MOTION_DOT": -0.0208225, "MEAN_MOTION_DDOT": 0}, "tle": {"line1": "1 66979U 25288W   25360.91668981 -.02082250  00000+0 -29962-1 0  9995", "line2": "2 66979  43.0003  80.8782 0001547 273.7048  77.6126 15.58331001  4101"}}, "geometry": {"type": "Point", "coordinates": [109.30784376912798, 25.478427152878126]}}]}